NORAD_CAT_ID,OBJECT_NAME,OBJECT_TYPE,EPOCH,MEAN_MOTION,ECCENTRICITY,INCLINATION,RA_OF_ASC_NODE,ARG_OF_PERICENTER,MEAN_ANOMALY,BSTAR,MEAN_MOTION_DOT,MEAN_MOTION_DDOT,TLE_LINE0,TLE_LINE1,TLE_LINE2,SEMIMAJOR_AXIS,PERIOD,APOGEE,PERIGEE,DECAYED
54167.0,STARLINK-5243,PAYLOAD,2024-02-21 22:06:02,15.08847182,0.0001576,53.2186,126.2783,91.212,268.9052,0.00014458,2.014e-05,0.0,0 STARLINK-5243,1 54167U 22141L   24052.92086791  .00002014  00000-0  14458-3 0  9990,2 54167  53.2186 126.2783 0001576  91.2120 268.9052 15.08847182 72985,6917.858,95.437,540.814,538.633,0.0
54167.0,STARLINK-5243,PAYLOAD,2024-02-22 04:27:36,15.08837692,0.000211,53.217,125.0874,88.5448,271.5786,8.8276e-05,1.117e-05,0.0,0 STARLINK-5243,1 54167U 22141L   24053.18583463  .00001117  00000-0  88276-4 0  9990,2 54167  53.2170 125.0874 0002110  88.5448 271.5786 15.08837692 73017,6917.887,95.438,541.212,538.293,0.0
54167.0,STARLINK-5243,PAYLOAD,2024-02-22 12:24:31,15.08835031,0.0001605,53.2169,123.6001,90.3392,269.7784,-2.2391e-05,-6.44e-06,0.0,0 STARLINK-5243,1 54167U 22141L   24053.51703557 -.00000644  00000-0 -22391-4 0  9997,2 54167  53.2169 123.6001 0001605  90.3392 269.7784 15.08835031 73076,6917.896,95.438,540.871,538.65,0.0
54167.0,STARLINK-5243,PAYLOAD,2024-02-23 10:39:55,15.08844861,0.0001537,53.2159,119.4366,97.6935,262.4231,0.00012938,1.772e-05,0.0,0 STARLINK-5243,1 54167U 22141L   24054.44439081  .00001772  00000-0  12938-3 0  9994,2 54167  53.2159 119.4366 0001537  97.6935 262.4231 15.08844861 73202,6917.866,95.437,540.794,538.667,0.0
54167.0,STARLINK-5243,PAYLOAD,2024-02-23 21:47:37,15.08838946,0.000136,53.2162,117.3559,91.5202,268.5946,0.00013728,1.898e-05,0.0,0 STARLINK-5243,1 54167U 22141L   24054.90807513  .00001898  00000-0  13728-3 0  9991,2 54167  53.2162 117.3559 0001360  91.5202 268.5946 15.08838946 73286,6917.884,95.438,540.689,538.808,0.0
54167.0,STARLINK-5243,PAYLOAD,2024-02-24 13:41:29,15.08839746,0.0001461,53.2165,114.3803,98.0266,262.0892,0.00018196,2.609e-05,0.0,0 STARLINK-5243,1 54167U 22141L   24055.57047764  .00002609  00000-0  18196-3 0  9994,2 54167  53.2165 114.3803 0001461  98.0266 262.0892 15.08839746 73381,6917.881,95.438,540.757,538.735,0.0
54167.0,STARLINK-5243,PAYLOAD,2024-02-25 10:21:30,15.08832819,0.0001485,53.2163,110.5127,94.1198,265.9964,-1.7228e-05,-5.62e-06,0.0,0 STARLINK-5243,1 54167U 22141L   24056.43160864 -.00000562  00000-0 -17228-4 0  9991,2 54167  53.2163 110.5127 0001485  94.1198 265.9964 15.08832819 73503,6917.902,95.438,540.795,538.74,0.0
54167.0,STARLINK-5243,PAYLOAD,2024-02-25 13:32:17,15.08835239,0.0001516,53.2165,109.9177,95.0473,265.0692,3.43e-05,2.58e-06,0.0,0 STARLINK-5243,1 54167U 22141L   24056.56408848  .00000258  00000-0  34300-4 0  9992,2 54167  53.2165 109.9177 0001516  95.0473 265.0692 15.08835239 73534,6917.895,95.438,540.809,538.711,0.0
54167.0,STARLINK-5243,PAYLOAD,2024-02-26 03:50:44,15.08850324,0.0001453,53.216,107.2437,94.5058,265.61,0.00038187,5.796e-05,0.0,0 STARLINK-5243,1 54167U 22141L   24057.16024300  .00005796  00000-0  38187-3 0  9994,2 54167  53.2160 107.2437 0001453  94.5058 265.6100 15.08850324 73613,6917.849,95.437,540.719,538.709,0.0
54167.0,STARLINK-5243,PAYLOAD,2024-02-26 08:36:54,15.08865042,0.0001536,53.2161,106.3525,93.4992,266.6176,0.00086253,0.00013475,0.0,0 STARLINK-5243,1 54167U 22141L   24057.35896200  .00013475  00000-0  86253-3 0  9991,2 54167  53.2161 106.3525 0001536  93.4992 266.6176 15.08865042 73650,6917.804,95.436,540.731,538.606,0.0
54167.0,STARLINK-5243,PAYLOAD,2024-02-27 11:38:27,15.08845831,0.000126,53.2152,101.2966,92.1904,267.9232,3.9587e-05,3.42e-06,0.0,0 STARLINK-5243,1 54167U 22141L   24058.48504079  .00000342  00000-0  39587-4 0  9994,2 54167  53.2152 101.2966 0001260  92.1904 267.9232 15.08845831 73815,6917.863,95.437,540.599,538.856,0.0
54167.0,STARLINK-5243,PAYLOAD,2024-02-27 19:35:22,15.088539,0.0001275,53.2159,99.8101,93.2287,266.8851,0.00036398,5.512e-05,0.0,0 STARLINK-5243,1 54167U 22141L   24058.81623721  .00005512  00000-0  36398-3 0  9997,2 54167  53.2159  99.8101 0001275  93.2287 266.8851 15.08853900 73874,6917.838,95.437,540.585,538.821,0.0
54167.0,STARLINK-5243,PAYLOAD,2024-02-28 01:56:55,15.08863337,9.01e-05,53.2131,98.6162,79.5294,280.5799,0.00060367,9.339e-05,0.0,0 STARLINK-5243,1 54167U 22141L   24059.08119282  .00009339  00000-0  60367-3 0  9993,2 54167  53.2131  98.6162 0000901  79.5294 280.5799 15.08863337 73901,6917.809,95.436,540.297,539.051,0.0
54167.0,STARLINK-5243,PAYLOAD,2024-02-28 11:29:14,15.08827189,0.0001454,53.2154,96.8386,94.8762,265.2396,-0.00027393,-4.643e-05,0.0,0 STARLINK-5243,1 54167U 22141L   24059.47863923 -.00004643  00000-0 -27393-3 0  9991,2 54167  53.2154  96.8386 0001454  94.8762 265.2396 15.08827189 73962,6917.92,95.438,540.79,538.779,0.0
54167.0,STARLINK-5243,PAYLOAD,2024-02-28 19:26:10,15.08831169,0.0001369,53.2148,95.3511,105.5802,254.5341,-0.00013275,-2.399e-05,0.0,0 STARLINK-5243,1 54167U 22141L   24059.80984172 -.00002399  00000-0 -13275-3 0  9998,2 54167  53.2148  95.3511 0001369 105.5802 254.5341 15.08831169 74021,6917.907,95.438,540.719,538.825,0.0
54167.0,STARLINK-5243,PAYLOAD,2024-02-29 09:44:38,15.08840618,0.0001399,53.2152,92.6721,88.0818,272.0335,0.00035051,5.295e-05,0.0,0 STARLINK-5243,1 54167U 22141L   24060.40600212  .00005295  00000-0  35051-3 0  9998,2 54167  53.2152  92.6721 0001399  88.0818 272.0335 15.08840618 74100,6917.878,95.438,540.711,538.776,0.0
54167.0,STARLINK-5243,PAYLOAD,2024-02-29 19:16:57,15.0884139,0.0001445,53.2149,90.8879,89.6661,270.4496,0.00063968,9.908e-05,0.0,0 STARLINK-5243,1 54167U 22141L   24060.80344518  .00009908  00000-0  63968-3 0  9999,2 54167  53.2149  90.8879 0001445  89.6661 270.4496 15.08841390 74170,6917.876,95.437,540.741,538.742,0.0
54167.0,STARLINK-5243,PAYLOAD,2024-03-01 08:00:02,15.08849782,0.0001464,53.2151,88.5093,89.1426,270.9734,0.00061751,9.556e-05,0.0,0 STARLINK-5243,1 54167U 22141L   24061.33336395  .00009556  00000-0  61751-3 0  9999,2 54167  53.2151  88.5093 0001464  89.1426 270.9734 15.08849782 74252,6917.85,95.437,540.728,538.703,0.0
54167.0,STARLINK-5243,PAYLOAD,2024-03-01 19:07:44,15.08852721,0.0001467,53.215,86.4274,88.6637,271.4523,0.00051332,7.894e-05,0.0,0 STARLINK-5243,1 54167U 22141L   24061.79704191  .00007894  00000-0  51332-3 0  9999,2 54167  53.2150  86.4274 0001467  88.6637 271.4523 15.08852721 74316,6917.842,95.437,540.721,538.692,0.0
54167.0,STARLINK-5243,PAYLOAD,2024-03-02 07:50:49,15.08848163,0.0001653,53.2163,84.0494,85.9124,274.2057,0.00024805,3.663e-05,0.0,0 STARLINK-5243,1 54167U 22141L   24062.32696196  .00003663  00000-0  24805-3 0  9999,2 54167  53.2163  84.0494 0001653  85.9124 274.2057 15.08848163 74392,6917.855,95.437,540.864,538.577,0.0
54167.0,STARLINK-5243,PAYLOAD,2024-03-03 01:20:04,15.08840197,0.0001711,53.2163,80.7784,85.4997,274.619,3.4029e-05,2.54e-06,0.0,0 STARLINK-5243,1 54167U 22141L   24063.05560451  .00000254  00000-0  34029-4 0  9997,2 54167  53.2163  80.7784 0001711  85.4997 274.6190 15.08840197 74509,6917.88,95.438,540.928,538.561,0.0
54167.0,STARLINK-5243,PAYLOAD,2024-03-03 07:41:36,15.08839501,0.0001634,53.2165,79.588,89.0117,271.1062,1.5016e-05,-4.9e-07,0.0,0 STARLINK-5243,1 54167U 22141L   24063.32056507 -.00000049  00000-0  15016-4 0  9997,2 54167  53.2165  79.5880 0001634  89.0117 271.1062 15.08839501 74554,6917.882,95.438,540.877,538.617,0.0
54167.0,STARLINK-5243,PAYLOAD,2024-03-04 07:32:23,15.08846244,0.0001623,53.2171,75.1294,92.9683,267.1494,0.00037523,5.69e-05,0.0,0 STARLINK-5243,1 54167U 22141L   24064.31416135  .00005690  00000-0  37523-3 0  9996,2 54167  53.2171  75.1294 0001623  92.9683 267.1494 15.08846244 74692,6917.861,95.437,540.849,538.604,0.0
54167.0,STARLINK-5243,PAYLOAD,2024-03-05 04:12:25,15.08831025,0.0001589,53.2176,71.2645,102.1034,258.0137,1.1462e-05,-1.06e-06,0.0,0 STARLINK-5243,1 54167U 22141L   24065.17529154 -.00000106  00000-0  11462-4 0  9990,2 54167  53.2176  71.2645 0001589 102.1034 258.0137 15.08831025 74828,6917.908,95.438,540.872,538.674,0.0
54167.0,STARLINK-5243,PAYLOAD,2024-03-05 05:47:48,15.088302,0.0001572,53.2166,70.965,91.724,268.3932,-5.9947e-05,-1.242e-05,0.0,0 STARLINK-5243,1 54167U 22141L   24065.24153135 -.00001242  00000-0 -59947-4 0  9993,2 54167  53.2166  70.9650 0001572  91.7240 268.3932 15.08830200 74846,6917.91,95.438,540.863,538.688,0.0
54167.0,STARLINK-5243,PAYLOAD,2024-03-06 04:03:12,15.08840907,0.000151,53.2169,66.8012,99.6054,260.5109,0.00021151,3.08e-05,0.0,0 STARLINK-5243,1 54167U 22141L   24066.16889071  .00003080  00000-0  21151-3 0  9995,2 54167  53.2169  66.8012 0001510  99.6054 260.5109 15.08840907 74976,6917.878,95.437,540.787,538.698,0.0
54167.0,STARLINK-5243,PAYLOAD,2024-03-06 08:49:21,15.08847341,0.0001567,53.2172,65.9099,100.9372,259.1796,0.00039079,5.938e-05,0.0,0 STARLINK-5243,1 54167U 22141L   24066.36760895  .00005938  00000-0  39079-3 0  9991,2 54167  53.2172  65.9099 0001567 100.9372 259.1796 15.08847341 75017,6917.858,95.437,540.807,538.639,0.0
54167.0,STARLINK-5243,PAYLOAD,2024-03-07 08:40:08,15.08842569,0.0001683,53.2181,61.4472,92.9194,267.1991,0.00020263,2.939e-05,0.0,0 STARLINK-5243,1 54167U 22141L   24067.36121119  .00002939  00000-0  20263-3 0  9995,2 54167  53.2181  61.4472 0001683  92.9194 267.1991 15.08842569 75163,6917.873,95.437,540.902,538.573,0.0
54167.0,STARLINK-5243,PAYLOAD,2024-03-08 06:55:32,15.08847226,0.0001506,53.2168,57.2869,96.2193,263.8971,8.9147e-05,1.131e-05,0.0,0 STARLINK-5243,1 54167U 22141L   24068.28856875  .00001131  00000-0  89147-4 0  9991,2 54167  53.2168  57.2869 0001506  96.2193 263.8971 15.08847226 75303,6917.858,95.437,540.765,538.681,0.0
54167.0,STARLINK-5243,PAYLOAD,2024-03-08 16:27:51,15.08841459,0.000159,53.2184,55.4989,88.2112,271.9062,7.0827e-05,8.39e-06,0.0,0 STARLINK-5243,1 54167U 22141L   24068.68601297  .00000839  00000-0  70827-4 0  9990,2 54167  53.2184  55.4989 0001590  88.2112 271.9062 15.08841459 75357,6917.876,95.437,540.841,538.641,0.0
